[{"OBJECT_NAME":"STARLINK-31774","OBJECT_ID":"2024-080X","EPOCH":"2026-03-09T07:30:45.879264","MEAN_MOTION":15.27576945,"ECCENTRICITY":0.00014996,"INCLINATION":43.0047,"RA_OF_ASC_NODE":36.6914,"ARG_OF_PERICENTER":262.6792,"MEAN_ANOMALY":97.3889,"EPHEMERIS_TYPE":0,"CLASSIFICATION_TYPE":"U","NORAD_CAT_ID":59622,"ELEMENT_SET_NO":999,"REV_AT_EPOCH":10451,"BSTAR":-1.138642e-5,"MEAN_MOTION_DOT":-5.76e-6,"MEAN_MOTION_DDOT":0},{"OBJECT_NAME":"FLOCK 4G-21","OBJECT_ID":"2025-009AU","EPOCH":"2026-03-09T04:40:37.351200","MEAN_MOTION":15.28381075,"ECCENTRICITY":4.655e-5,"INCLINATION":97.4032,"RA_OF_ASC_NODE":151.1274,"ARG_OF_PERICENTER":329.5782,"MEAN_ANOMALY":30.5431,"EPHEMERIS_TYPE":0,"CLASSIFICATION_TYPE":"U","NORAD_CAT_ID":62651,"ELEMENT_SET_NO":999,"REV_AT_EPOCH":6367,"BSTAR":0.00049618643,"MEAN_MOTION_DOT":0.00013648,"MEAN_MOTION_DDOT":0}]
